STARLINK-30524
1 57965U 23151B   26061.16668981  .01939530  00000+0  74568-1 0  9994
2 57965  43.0001  18.6193 0001299 257.6616 130.3887 15.22338234  5776
STARLINK-31108
1 58738U 24005L   26061.16668981  .02050720  00000+0  78412-1 0  9990
2 58738  42.9993 261.9499 0001210 284.6466 174.4443 15.22324513  5773
